STARLINK-34943          
1 65366U 25190R   26036.95757803  .00001018  00000+0  46540-4 0  9996
2 65366  53.1599 315.8021 0001612  27.1342 332.9743 15.30181040 24425
STARLINK-34946          
1 65367U 25190S   26037.14085828  .00024862  00000+0  84847-3 0  9993
2 65367  53.1590 314.8094 0000873 330.9940  29.1012 15.30210301 24925
STARLINK-34259          
1 65368U 25190T   26037.14297568  .00006860  00000+0  24363-3 0  9995
2 65368  53.1589 314.8271 0000868  86.3420 273.7680 15.30184943 24920
STARLINK-34913          
1 65369U 25190U   26037.20196157  .00040390  00000+0  13699-2 0  9990
2 65369  53.1570 314.4839 0001254  39.6169 320.4923 15.30164990 24939
STARLINK-34870          
1 65370U 25190V   26036.99756918  .00056216  00000+0  18996-2 0  9993
2 65370  53.1580 315.3437 0001544  80.1719 279.9456 15.30134923 24437
STARLINK-34869          
1 65371U 25190W   26036.99967186 -.00026324  00000+0 -88066-3 0  9990
2 65371  53.1579 315.3520 0001943  72.3168 287.8045 15.30165756 24905
STARLINK-34903          
1 65372U 25190X   26037.18296172  .00032245  00000+0  10967-2 0  9994
2 65372  53.1590 314.3630 0001754  27.8810 332.2284 15.30181998 24938
STARLINK-34891          
1 65373U 25190Y   26037.22517991  .00051838  00000+0  17534-2 0  9991
2 65373  53.1602 314.6188 0001159 114.2027 245.9095 15.30140507 24418
STARLINK-34900          
1 65374U 25190Z   26036.99018391  .00043261  00000+0  14666-2 0  9999
2 65374  53.1584 315.2884 0001778  59.5799 300.5377 15.30148830 24386
STARLINK-34305          
1 65375U 25190AA  26037.18401894  .00034911  00000+0  11870-2 0  9992
2 65375  53.1589 314.3605 0001532  92.9901 267.1275 15.30151731 24937
STARLINK-34249          
1 65376U 25190AB  26037.15035371  .00016372  00000+0  56454-3 0  9992
2 65376  53.1623 314.8599 0000357 175.3524 184.7480 15.30150548 25348
STARLINK-34879          
1 65377U 25190AC  26037.17557962  .00026555  00000+0  90683-3 0  9996
2 65377  53.1588 314.3093 0001045  85.5312 274.5808 15.30152429 24931
STARLINK-34912          
1 65378U 25190AD  26036.97328390  .00008952  00000+0  31384-3 0  9999
2 65378  53.1597 315.1773 0001596  79.4597 280.6584 15.30218699 24902
STARLINK-34985          
1 65379U 25191A   26037.10531047 -.00001008  00000+0 -65631-4 0  9992
2 65379  97.6034 270.3457 0001616  91.5463 268.5949 15.05650831 25511
STARLINK-35051          
1 65380U 25191B   26037.06935360  .00005616  00000+0  39324-3 0  9991
2 65380  97.6043 270.3958 0001799  73.7727 286.3698 15.05638729 25528
STARLINK-35028          
1 65381U 25191C   26036.65399110  .00015019  00000+0  10430-2 0  9997
2 65381  97.6006 270.0239 0002848  80.3271 279.8277 15.05641590 25453
