[{"OBJECT_NAME":"STARLINK-34943","OBJECT_ID":"2025-190R","EPOCH":"2026-02-05T22:58:54.741792","MEAN_MOTION":15.3018104,"ECCENTRICITY":0.0001612,"INCLINATION":53.1599,"RA_OF_ASC_NODE":315.8021,"ARG_OF_PERICENTER":27.1342,"MEAN_ANOMALY":332.9743,"EPHEMERIS_TYPE":0,"CLASSIFICATION_TYPE":"U","NORAD_CAT_ID":65366,"ELEMENT_SET_NO":999,"REV_AT_EPOCH":2442,"BSTAR":4.6540292e-5,"MEAN_MOTION_DOT":1.018e-5,"MEAN_MOTION_DDOT":0},{"OBJECT_NAME":"STARLINK-34946","OBJECT_ID":"2025-190S","EPOCH":"2026-02-06T03:22:50.155392","MEAN_MOTION":15.30210301,"ECCENTRICITY":8.738e-5,"INCLINATION":53.159,"RA_OF_ASC_NODE":314.8094,"ARG_OF_PERICENTER":330.994,"MEAN_ANOMALY":29.1012,"EPHEMERIS_TYPE":0,"CLASSIFICATION_TYPE":"U","NORAD_CAT_ID":65367,"ELEMENT_SET_NO":999,"REV_AT_EPOCH":2492,"BSTAR":0.00084846632,"MEAN_MOTION_DOT":0.00024862,"MEAN_MOTION_DDOT":0},{"OBJECT_NAME":"STARLINK-34259","OBJECT_ID":"2025-190T","EPOCH":"2026-02-06T03:25:53.098752","MEAN_MOTION":15.30184943,"ECCENTRICITY":8.685e-5,"INCLINATION":53.1589,"RA_OF_ASC_NODE":314.8271,"ARG_OF_PERICENTER":86.342,"MEAN_ANOMALY":273.768,"EPHEMERIS_TYPE":0,"CLASSIFICATION_TYPE":"U","NORAD_CAT_ID":65368,"ELEMENT_SET_NO":999,"REV_AT_EPOCH":2492,"BSTAR":0.00024363237,"MEAN_MOTION_DOT":6.86e-5,"MEAN_MOTION_DDOT":0},{"OBJECT_NAME":"STARLINK-34913","OBJECT_ID":"2025-190U","EPOCH":"2026-02-06T04:50:49.479648","MEAN_MOTION":15.3016499,"ECCENTRICITY":0.00012549,"INCLINATION":53.157,"RA_OF_ASC_NODE":314.4839,"ARG_OF_PERICENTER":39.6169,"MEAN_ANOMALY":320.4923,"EPHEMERIS_TYPE":0,"CLASSIFICATION_TYPE":"U","NORAD_CAT_ID":65369,"ELEMENT_SET_NO":999,"REV_AT_EPOCH":2493,"BSTAR":0.0013699039,"MEAN_MOTION_DOT":0.0004039,"MEAN_MOTION_DDOT":0},{"OBJECT_NAME":"STARLINK-34870","OBJECT_ID":"2025-190V","EPOCH":"2026-02-05T23:56:29.977152","MEAN_MOTION":15.30134923,"ECCENTRICITY":0.00015441,"INCLINATION":53.158,"RA_OF_ASC_NODE":315.3437,"ARG_OF_PERICENTER":80.1719,"MEAN_ANOMALY":279.9456,"EPHEMERIS_TYPE":0,"CLASSIFICATION_TYPE":"U","NORAD_CAT_ID":65370,"ELEMENT_SET_NO":999,"REV_AT_EPOCH":2443,"BSTAR":0.0018996424,"MEAN_MOTION_DOT":0.00056216,"MEAN_MOTION_DDOT":0},{"OBJECT_NAME":"STARLINK-34869","OBJECT_ID":"2025-190W","EPOCH":"2026-02-05T23:59:31.648704","MEAN_MOTION":15.30165756,"ECCENTRICITY":0.00019432,"INCLINATION":53.1579,"RA_OF_ASC_NODE":315.352,"ARG_OF_PERICENTER":72.3168,"MEAN_ANOMALY":287.8045,"EPHEMERIS_TYPE":0,"CLASSIFICATION_TYPE":"U","NORAD_CAT_ID":65371,"ELEMENT_SET_NO":999,"REV_AT_EPOCH":2490,"BSTAR":-0.0008806598,"MEAN_MOTION_DOT":-0.00026324,"MEAN_MOTION_DDOT":0},{"OBJECT_NAME":"STARLINK-34903","OBJECT_ID":"2025-190X","EPOCH":"2026-02-06T04:23:27.892608","MEAN_MOTION":15.30181998,"ECCENTRICITY":0.00017547,"INCLINATION":53.159,"RA_OF_ASC_NODE":314.363,"ARG_OF_PERICENTER":27.881,"MEAN_ANOMALY":332.2284,"EPHEMERIS_TYPE":0,"CLASSIFICATION_TYPE":"U","NORAD_CAT_ID":65372,"ELEMENT_SET_NO":999,"REV_AT_EPOCH":2493,"BSTAR":0.0010967002,"MEAN_MOTION_DOT":0.00032245,"MEAN_MOTION_DDOT":0},{"OBJECT_NAME":"STARLINK-34891","OBJECT_ID":"2025-190Y","EPOCH":"2026-02-06T05:24:15.544224","MEAN_MOTION":15.30140507,"ECCENTRICITY":0.0001159,"INCLINATION":53.1602,"RA_OF_ASC_NODE":314.6188,"ARG_OF_PERICENTER":114.2027,"MEAN_ANOMALY":245.9095,"EPHEMERIS_TYPE":0,"CLASSIFICATION_TYPE":"U","NORAD_CAT_ID":65373,"ELEMENT_SET_NO":999,"REV_AT_EPOCH":2441,"BSTAR":0.0017533728,"MEAN_MOTION_DOT":0.00051838,"MEAN_MOTION_DDOT":0},{"OBJECT_NAME":"STARLINK-34900","OBJECT_ID":"2025-190Z","EPOCH":"2026-02-05T23:45:51.889824","MEAN_MOTION":15.3014883,"ECCENTRICITY":0.00017785,"INCLINATION":53.1584,"RA_OF_ASC_NODE":315.2884,"ARG_OF_PERICENTER":59.5799,"MEAN_ANOMALY":300.5377,"EPHEMERIS_TYPE":0,"CLASSIFICATION_TYPE":"U","NORAD_CAT_ID":65374,"ELEMENT_SET_NO":999,"REV_AT_EPOCH":2438,"BSTAR":0.0014665683,"MEAN_MOTION_DOT":0.00043261,"MEAN_MOTION_DDOT":0},{"OBJECT_NAME":"STARLINK-34305","OBJECT_ID":"2025-190AA","EPOCH":"2026-02-06T04:24:59.236416","MEAN_MOTION":15.30151731,"ECCENTRICITY":0.00015323,"INCLINATION":53.1589,"RA_OF_ASC_NODE":314.3605,"ARG_OF_PERICENTER":92.9901,"MEAN_ANOMALY":267.1275,"EPHEMERIS_TYPE":0,"CLASSIFICATION_TYPE":"U","NORAD_CAT_ID":65375,"ELEMENT_SET_NO":999,"REV_AT_EPOCH":2493,"BSTAR":0.0011870443,"MEAN_MOTION_DOT":0.00034911,"MEAN_MOTION_DDOT":0},{"OBJECT_NAME":"STARLINK-34249","OBJECT_ID":"2025-190AB","EPOCH":"2026-02-06T03:36:30.560544","MEAN_MOTION":15.30150548,"ECCENTRICITY":3.576e-5,"INCLINATION":53.1623,"RA_OF_ASC_NODE":314.8599,"ARG_OF_PERICENTER":175.3524,"MEAN_ANOMALY":184.748,"EPHEMERIS_TYPE":0,"CLASSIFICATION_TYPE":"U","NORAD_CAT_ID":65376,"ELEMENT_SET_NO":999,"REV_AT_EPOCH":2534,"BSTAR":0.00056453645,"MEAN_MOTION_DOT":0.00016372,"MEAN_MOTION_DDOT":0},{"OBJECT_NAME":"STARLINK-34879","OBJECT_ID":"2025-190AC","EPOCH":"2026-02-06T04:12:50.079168","MEAN_MOTION":15.30152429,"ECCENTRICITY":0.00010455,"INCLINATION":53.1588,"RA_OF_ASC_NODE":314.3093,"ARG_OF_PERICENTER":85.5312,"MEAN_ANOMALY":274.5808,"EPHEMERIS_TYPE":0,"CLASSIFICATION_TYPE":"U","NORAD_CAT_ID":65377,"ELEMENT_SET_NO":999,"REV_AT_EPOCH":2493,"BSTAR":0.00090682925,"MEAN_MOTION_DOT":0.00026555,"MEAN_MOTION_DDOT":0},{"OBJECT_NAME":"STARLINK-34912","OBJECT_ID":"2025-190AD","EPOCH":"2026-02-05T23:21:31.728960","MEAN_MOTION":15.30218699,"ECCENTRICITY":0.00015966,"INCLINATION":53.1597,"RA_OF_ASC_NODE":315.1773,"ARG_OF_PERICENTER":79.4597,"MEAN_ANOMALY":280.6584,"EPHEMERIS_TYPE":0,"CLASSIFICATION_TYPE":"U","NORAD_CAT_ID":65378,"ELEMENT_SET_NO":999,"REV_AT_EPOCH":2490,"BSTAR":0.00031383627,"MEAN_MOTION_DOT":8.952e-5,"MEAN_MOTION_DDOT":0},{"OBJECT_NAME":"STARLINK-34985","OBJECT_ID":"2025-191A","EPOCH":"2026-02-06T02:31:38.824608","MEAN_MOTION":15.05650831,"ECCENTRICITY":0.00016169,"INCLINATION":97.6034,"RA_OF_ASC_NODE":270.3457,"ARG_OF_PERICENTER":91.5463,"MEAN_ANOMALY":268.5949,"EPHEMERIS_TYPE":0,"CLASSIFICATION_TYPE":"U","NORAD_CAT_ID":65379,"ELEMENT_SET_NO":999,"REV_AT_EPOCH":2551,"BSTAR":-6.5630559e-5,"MEAN_MOTION_DOT":-1.008e-5,"MEAN_MOTION_DDOT":0},{"OBJECT_NAME":"STARLINK-35051","OBJECT_ID":"2025-191B","EPOCH":"2026-02-06T01:39:52.151040","MEAN_MOTION":15.05638729,"ECCENTRICITY":0.00017992,"INCLINATION":97.6043,"RA_OF_ASC_NODE":270.3958,"ARG_OF_PERICENTER":73.7727,"MEAN_ANOMALY":286.3698,"EPHEMERIS_TYPE":0,"CLASSIFICATION_TYPE":"U","NORAD_CAT_ID":65380,"ELEMENT_SET_NO":999,"REV_AT_EPOCH":2552,"BSTAR":0.00039323596,"MEAN_MOTION_DOT":5.616e-5,"MEAN_MOTION_DDOT":0},{"OBJECT_NAME":"STARLINK-35028","OBJECT_ID":"2025-191C","EPOCH":"2026-02-05T15:41:44.831040","MEAN_MOTION":15.0564159,"ECCENTRICITY":0.0002848,"INCLINATION":97.6006,"RA_OF_ASC_NODE":270.0239,"ARG_OF_PERICENTER":80.3271,"MEAN_ANOMALY":279.8277,"EPHEMERIS_TYPE":0,"CLASSIFICATION_TYPE":"U","NORAD_CAT_ID":65381,"ELEMENT_SET_NO":999,"REV_AT_EPOCH":2545,"BSTAR":0.001043,"MEAN_MOTION_DOT":0.00015019,"MEAN_MOTION_DDOT":0}]
